NORAD_CAT_ID,OBJECT_NAME,OBJECT_TYPE,EPOCH,MEAN_MOTION,ECCENTRICITY,INCLINATION,RA_OF_ASC_NODE,ARG_OF_PERICENTER,MEAN_ANOMALY,BSTAR,MEAN_MOTION_DOT,MEAN_MOTION_DDOT,TLE_LINE0,TLE_LINE1,TLE_LINE2,SEMIMAJOR_AXIS,PERIOD,APOGEE,PERIGEE,DECAYED
56493.0,STARLINK-5841,PAYLOAD,2024-01-21 00:00:00,15.35767878,0.000337,69.9995,249.4778,267.6513,84.9321,-0.027525,-0.0088408,0.0,0 STARLINK-5841,1 56493U 23064AX  24021.00001157 -.00884080  00000-0 -27525-1 0  9997,2 56493  69.9995 249.4778 0003370 267.6513  84.9321 15.35767878  5942,6836.778,93.764,460.947,456.339,0.0
56493.0,STARLINK-5841,PAYLOAD,2024-01-21 06:00:02,15.35320955,0.0003299,69.9992,248.8103,265.3092,28.9022,-0.030704,-0.00964655,0.0,0 STARLINK-5841,1 56493U 23064AX  24021.25002315 -.00964655  00000-0 -30704-1 0  9991,2 56493  69.9992 248.8103 0003299 265.3092  28.9022 15.35320955  5982,6838.104,93.791,462.225,457.713,0.0
56493.0,STARLINK-5841,PAYLOAD,2024-01-21 14:00:01,15.3462994,0.0003459,69.9994,247.9215,261.0686,74.4992,-0.028336,-0.00878061,0.0,0 STARLINK-5841,1 56493U 23064AX  24021.58334491 -.00878061  00000-0 -28336-1 0  9993,2 56493  69.9994 247.9215 0003459 261.0686  74.4992 15.34629940 40489,6840.157,93.834,464.388,459.656,0.0
56493.0,STARLINK-5841,PAYLOAD,2024-01-22 00:00:00,15.33810046,0.0003248,69.9992,246.8113,269.8228,206.4239,-0.029207,-0.00881394,0.0,0 STARLINK-5841,1 56493U 23064AX  24022.00001157 -.00881394  00000-0 -29207-1 0  9992,2 56493  69.9992 246.8113 0003248 269.8228 206.4239 15.33810046  5880,6842.594,93.884,466.682,462.237,0.0
56493.0,STARLINK-5841,PAYLOAD,2024-01-22 06:00:00,15.33360116,0.000333,69.9989,246.1458,267.9737,148.0775,-0.032449,-0.00958276,0.0,0 STARLINK-5841,1 56493U 23064AX  24022.25001157 -.00958276  00000-0 -32449-1 0  9995,2 56493  69.9989 246.1458 0003330 267.9737 148.0775 15.33360116 40598,6843.933,93.911,468.077,463.519,0.0
56493.0,STARLINK-5841,PAYLOAD,2024-01-22 08:00:01,15.3317332,0.0003245,69.9991,245.924,265.456,250.4443,-0.031355,-0.00923565,0.0,0 STARLINK-5841,1 56493U 23064AX  24022.33334491 -.00923565  00000-0 -31355-1 0  9992,2 56493  69.9991 245.9240 0003245 265.4560 250.4443 15.33173320  5937,6844.489,93.923,468.575,464.133,0.0
56493.0,STARLINK-5841,PAYLOAD,2024-01-22 22:00:00,15.32024589,0.0003333,69.9989,244.3738,268.3396,225.0781,-0.031667,-0.00901509,0.0,0 STARLINK-5841,1 56493U 23064AX  24022.91667824 -.00901509  00000-0 -31667-1 0  9995,2 56493  69.9989 244.3738 0003333 268.3396 225.0781 15.32024589 40692,6847.91,93.993,472.057,467.492,0.0
56493.0,STARLINK-5841,PAYLOAD,2024-01-23 08:00:01,15.31213717,0.0003368,69.9988,243.2677,263.945,6.2311,-0.033146,-0.0091845,0.0,0 STARLINK-5841,1 56493U 23064AX  24023.33334491 -.00918450  00000-0 -33146-1 0  9990,2 56493  69.9988 243.2677 0003368 263.9450   6.2311 15.31213717  6097,6850.327,94.043,474.499,469.885,0.0
56493.0,STARLINK-5841,PAYLOAD,2024-01-23 22:00:00,15.30063559,0.0003348,69.9988,241.7218,267.7155,335.8731,-0.033384,-0.00894554,0.0,0 STARLINK-5841,1 56493U 23064AX  24023.91667824 -.00894554  00000-0 -33384-1 0  9995,2 56493  69.9988 241.7218 0003348 267.7155 335.8731 15.30063559 40847,6853.759,94.114,477.919,473.33,0.0
56493.0,STARLINK-5841,PAYLOAD,2024-01-24 00:00:00,15.29895009,0.0003448,69.9987,241.5012,269.5117,72.9397,-0.03294,-0.00879368,0.0,0 STARLINK-5841,1 56493U 23064AX  24024.00001157 -.00879368  00000-0 -32940-1 0  9990,2 56493  69.9987 241.5012 0003448 269.5117  72.9397 15.29895009  6058,6854.263,94.124,478.491,473.765,0.0
56493.0,STARLINK-5841,PAYLOAD,2024-01-24 14:00:01,15.28772239,0.0003427,69.9986,239.9583,261.911,51.1966,-0.034905,-0.00898403,0.0,0 STARLINK-5841,1 56493U 23064AX  24024.58334491 -.00898403  00000-0 -34905-1 0  9997,2 56493  69.9986 239.9583 0003427 261.9110  51.1966 15.28772239 40942,6857.618,94.193,481.834,477.133,0.0
56493.0,STARLINK-5841,PAYLOAD,2024-01-25 00:00:00,15.27935067,0.0003359,69.9985,238.8584,271.2323,173.7594,-0.034792,-0.00874758,0.0,0 STARLINK-5841,1 56493U 23064AX  24025.00001157 -.00874758  00000-0 -34792-1 0  9996,2 56493  69.9985 238.8584 0003359 271.2323 173.7594 15.27935067  6101,6860.123,94.245,484.292,479.684,0.0
56493.0,STARLINK-5841,PAYLOAD,2024-01-25 06:00:00,15.27485345,0.0003406,69.998,238.1981,267.2169,112.3006,-0.038683,-0.0096444,0.0,0 STARLINK-5841,1 56493U 23064AX  24025.25001157 -.00964440  00000-0 -38683-1 0  9994,2 56493  69.9980 238.1981 0003406 267.2169 112.3006 15.27485345 41055,6861.47,94.273,485.672,480.998,0.0
56493.0,STARLINK-5841,PAYLOAD,2024-01-25 14:00:01,15.2728433,0.0003798,69.9982,237.3189,262.9462,148.7972,0.00079985,0.00021375,0.0,0 STARLINK-5841,1 56493U 23064AX  24025.58334491  .00021375  00000-0  79985-3 0  9991,2 56493  69.9982 237.3189 0003798 262.9462 148.7972 15.27284330 41102,6862.072,94.285,486.543,481.33,0.0
56493.0,STARLINK-5841,PAYLOAD,2024-01-26 00:00:00,15.27273979,0.000381,69.9982,236.2204,268.9759,273.0423,0.0018429,0.00049584,0.0,0 STARLINK-5841,1 56493U 23064AX  24026.00001157  .00049584  00000-0  18429-2 0  9996,2 56493  69.9982 236.2204 0003810 268.9759 273.0423 15.27273979  5939,6862.103,94.286,486.582,481.353,0.0
56493.0,STARLINK-5841,PAYLOAD,2024-01-26 06:00:00,15.27398471,0.0003747,69.9978,235.5612,266.9013,209.2566,-0.01047,-0.00271729,0.0,0 STARLINK-5841,1 56493U 23064AX  24026.25001157 -.00271729  00000-0 -10470-1 0  9990,2 56493  69.9978 235.5612 0003747 266.9013 209.2566 15.27398471 41203,6861.73,94.278,486.166,481.024,0.0
56493.0,STARLINK-5841,PAYLOAD,2024-01-26 14:00:01,15.27302347,0.0003444,69.9982,234.6821,262.6022,245.7876,-0.036564,-0.00899554,0.0,0 STARLINK-5841,1 56493U 23064AX  24026.58334491 -.00899554  00000-0 -36564-1 0  9990,2 56493  69.9982 234.6821 0003444 262.6022 245.7876 15.27302347 41258,6862.018,94.284,486.246,481.519,0.0
56493.0,STARLINK-5841,PAYLOAD,2024-01-27 06:00:00,15.26007081,0.0003164,69.9978,232.926,264.3657,306.9043,-0.040224,-0.00959167,0.0,0 STARLINK-5841,1 56493U 23064AX  24027.25001157 -.00959167  00000-0 -40224-1 0  9990,2 56493  69.9978 232.9260 0003164 264.3657 306.9043 15.26007081 41356,6865.9,94.364,489.937,485.593,0.0
56493.0,STARLINK-5841,PAYLOAD,2024-01-27 14:00:01,15.25348069,0.0003247,69.9981,232.0493,260.2175,341.3056,-0.039149,-0.00918255,0.0,0 STARLINK-5841,1 56493U 23064AX  24027.58334491 -.00918255  00000-0 -39149-1 0  9993,2 56493  69.9981 232.0493 0003247 260.2175 341.3056 15.25348069  6026,6867.877,94.405,491.972,487.512,0.0
56493.0,STARLINK-5841,PAYLOAD,2024-01-27 22:00:00,15.24668054,0.0003219,69.9981,231.1733,266.962,4.0568,-0.038576,-0.00878107,0.0,0 STARLINK-5841,1 56493U 23064AX  24027.91667824 -.00878107  00000-0 -38576-1 0  9993,2 56493  69.9981 231.1733 0003219 266.9620   4.0568 15.24668054 41455,6869.919,94.447,493.996,489.573,0.0
56493.0,STARLINK-5841,PAYLOAD,2024-01-28 14:00:01,15.23395556,0.0003367,69.9982,229.4243,262.1401,65.5358,-0.04189,-0.00926153,0.0,0 STARLINK-5841,1 56493U 23064AX  24028.58335648 -.00926153  00000-0 -41890-1 0  9991,2 56493  69.9982 229.4243 0003367 262.1401  65.5358 15.23395556 41554,6873.744,94.526,497.924,493.295,0.0
56493.0,STARLINK-5841,PAYLOAD,2024-01-28 22:00:00,15.22713596,0.00033,69.9981,228.5511,269.2586,85.5022,-0.04101,-0.00891079,0.0,0 STARLINK-5841,1 56493U 23064AX  24028.91667824 -.00891079  00000-0 -41010-1 0  9994,2 56493  69.9981 228.5511 0003300 269.2586  85.5022 15.22713596  5995,6875.797,94.568,499.931,495.393,0.0
56493.0,STARLINK-5841,PAYLOAD,2024-01-29 14:00:01,15.21296649,0.000312,69.9984,226.8074,263.0839,143.594,-0.00373,-0.00082832,0.0,0 STARLINK-5841,1 56493U 23064AX  24029.58334491 -.00082832  00000-0 -37300-2 0  9996,2 56493  69.9984 226.8074 0003120 263.0839 143.5940 15.21296649 41714,6880.065,94.656,504.077,499.784,0.0
56493.0,STARLINK-5841,PAYLOAD,2024-01-29 22:00:01,15.21222863,0.0003116,69.9983,225.9364,270.5014,161.2332,0.0016813,0.000377,0.0,0 STARLINK-5841,1 56493U 23064AX  24029.91668981  .00037700  00000-0  16813-2 0  9995,2 56493  69.9983 225.9364 0003116 270.5014 161.2332 15.21222863  5986,6880.288,94.661,504.297,500.009,0.0
56493.0,STARLINK-5841,PAYLOAD,2024-01-30 06:00:00,15.21248362,0.0003081,69.9984,225.0657,267.2339,189.3904,-0.00081516,-0.00018326,0.0,0 STARLINK-5841,1 56493U 23064AX  24030.25001157 -.00018326  00000-0 -81516-3 0  9998,2 56493  69.9984 225.0657 0003081 267.2339 189.3904 15.21248362 41817,6880.211,94.659,504.196,499.956,0.0
56493.0,STARLINK-5841,PAYLOAD,2024-01-30 14:00:01,15.21306198,0.0003137,69.9987,224.195,266.4849,215.1,-0.00075717,-0.00017063,0.0,0 STARLINK-5841,1 56493U 23064AX  24030.58334491 -.00017063  00000-0 -75717-3 0  9997,2 56493  69.9987 224.1950 0003137 266.4849 215.1000 15.21306198 41867,6880.037,94.656,504.06,499.743,0.0
56493.0,STARLINK-5841,PAYLOAD,2024-01-31 00:00:02,15.2121605,0.0002942,69.9985,223.1063,270.9564,331.9849,-0.0026176,-0.00058219,0.0,0 STARLINK-5841,1 56493U 23064AX  24031.00002315 -.00058219  00000-0 -26176-2 0  9994,2 56493  69.9985 223.1063 0002942 270.9564 331.9849 15.21216050  5883,6880.308,94.661,504.198,500.149,0.0
56493.0,STARLINK-5841,PAYLOAD,2024-01-31 06:00:02,15.21157288,0.0002939,69.9987,222.4533,266.0806,265.5498,0.001455,0.00032524,0.0,0 STARLINK-5841,1 56493U 23064AX  24031.25002315  .00032524  00000-0  14550-2 0  9993,2 56493  69.9987 222.4533 0002939 266.0806 265.5498 15.21157288 41968,6880.486,94.665,504.373,500.328,0.0
56493.0,STARLINK-5841,PAYLOAD,2024-01-31 14:00:01,15.2123174,0.0002999,69.9991,221.5828,264.1729,292.3116,5.5912e-05,1.135e-05,0.0,0 STARLINK-5841,1 56493U 23064AX  24031.58335648  .00001135  00000-0  55912-4 0  9990,2 56493  69.9991 221.5828 0002999 264.1729 292.3116 15.21231740  5971,6880.261,94.66,504.19,500.063,0.0
56493.0,STARLINK-5841,PAYLOAD,2024-01-31 22:00:00,15.21208436,0.0002988,69.9989,220.712,272.2505,309.1243,0.0022391,0.00050312,0.0,0 STARLINK-5841,1 56493U 23064AX  24031.91667824  .00050312  00000-0  22391-2 0  9995,2 56493  69.9989 220.7120 0002988 272.2505 309.1243 15.21208436 42069,6880.331,94.662,504.252,500.141,0.0
